#dP2019  4 11  0  0  0.00000000      96 __u+U ITR00 FIT  IAC
## 2048 345600.00000000   900.00000000 58584 0.0000000000000
+   90   C02C03C05C06C07C08C09C10C11C12C13C14E01E02E03E04E05
+        E07E08E09E11E12E13E14E15E18E19E21E24E25E26E27E30E31
+        E33E36G01G02G03G04G05G06G07G08G09G10G11G12G13G14G15
+        G16G17G18G19G20G21G22G23G24G25G26G27G28G29G30G31R01
+        R02R03R04R05R07R08R09R10R11R13R14R15R16R17R18R19R20
+        R21R22R23R24R26  0  0  0  0  0  0  0  0  0  0  0  0
++        12 12 12  9  9  9  8  8  8  8  9  8  6  5  5  5  5
++         6  5  5  5  5  6  6  5  5  5  5  5  5  6  5  5  6
++         5  5  4  3  3  4  4  3  4  4  3  4  4  3  3  4  3
++         4  3  4  3  4  4  4  4  4  4  4  4  4  4  4  4  6
++         5  5  5  6  6  6  6  6  6  5  5  5  6  6  5  5  5
++         6  6  6  6  9  0  0  0  0  0  0  0  0  0  0  0  0
%c M  cc GPS ccc cccc cccc cccc cccc ccccc ccccc ccccc ccccc
%c cc cc ccc ccc cccc cccc cccc cccc ccccc ccccc ccccc ccccc
%f  0.0000000  0.000000000  0.00000000000  0.000000000000000
%f  0.0000000  0.000000000  0.00000000000  0.000000000000000
%i    0    0    0    0      0      0      0      0         0
%i    0    0    0    0      0      0      0      0         0
/*                                                          
/*   RSA / INFORMATION & ANALYSIS CENTER (IAC) OF MCC       
/*   ULTRA-RAPID DETERMINATION                              
/* PCV:IGS14_2038 OL/AL:FES2004  NONE     YN ORB:CoN CLK:CoN
*  2019 04 11 10 30  0.00000000
PC02   4334.169432  41955.106620    -59.089123    227.327298
PC03 -14858.492415  39438.904025    564.527660    108.641481
PC05  21887.477844  36018.539569   -345.274870   -225.137747
PC06 -17866.239248  20298.701346 -32104.800008    664.304384
PC07 -21583.008464  35582.289094   5080.156037   -293.846604
PC08  -6393.736727  31108.802511  27962.261893    143.876479
PC09     49.564109  24794.330944 -33867.785340    677.273109
PC10 -10554.349632  36894.895631  17154.158974   -653.883532
PC11 -11486.596139 -20345.862682 -15164.081860    -96.015413
PC12  15647.312769  -6869.408691 -22013.315047    568.448187
PC13   3964.081794  38920.562589  16088.648389   -646.287822
PC14   9145.030994 -18850.256155  18477.967893    689.171725
PE01  15551.810030   5229.207799  24630.513849   -581.381672
PE02 -15584.683094  -5171.195972 -24635.502363     55.433908
PE03 -27114.073087  -5934.439587  10273.189204   -153.985046
PE04  27566.725756  -7143.700984   8082.759680   -259.110487
PE05 -10767.978468 -15620.134353  22726.458734     76.038575
PE07 -11800.311289  16122.151463 -21826.657014   -166.567450
PE08 -27469.124975   7365.700930  -8180.059465   6374.077710
PE09  11669.196683 -16102.573316  21939.162649   6472.854648
PE11   1989.400035 -21457.820602 -20302.643621   5708.149516
PE12  16654.638283  -3970.673160 -24134.076555   6450.022579
PE13  -2006.067943  21298.689814  20461.692695    385.456594
PE14 -14346.108437   9111.044773  16601.358075   -525.018759
PE15 -16415.859715   4331.683243  24260.208637    914.195901
PE18  12296.770311 -16993.224625 -24749.995205   -624.205152
PE19  26136.009799   7019.579937 -11979.253997     -7.146429
PE21   2190.757079  22877.240650  18645.625681   -528.527306
PE24  12242.071528 -26857.515288  -2112.034529   6138.356436
PE25  -2155.018520 -22910.727200 -18620.197967   1837.987618
PE26  13370.694721  25991.982857   4664.216945   4695.049897
PE27 -12366.953350  26842.632058   1676.981840    492.208841
PE30 -19736.851187  15235.581328 -15976.005878   4960.182449
PE31  19641.773901 -15054.120824  16243.482569    860.031127
PE33  21252.093437  15221.961974 -13861.400791   -470.712748
PE36 -13653.399005 -25856.340632  -4638.056659    725.574693
PG01 -14407.797334   3490.853070  21858.287804   -199.444231
PG02  14129.902211  18983.174305 -11614.838126   -186.266928
PG03 -22015.907952  10076.331547  10787.277117    188.120230
PG04  -7209.293464  13548.966498 -21666.063463    147.437809
PG05  14401.753033   7234.367485 -21257.285801      1.144918
PG06   6971.417854  25554.799729  -1613.833869    233.503346
PG07  -8717.993239  17747.475356 -17250.335015     -2.663311
PG08 -25932.622955  -5268.528191   3379.342258   -139.500336
PG09 -13457.971814  10956.362621 -20152.325360    430.675853
PG10   6240.038228 -20560.056458  15546.052546     75.639541
PG11 -18444.672220   -180.501847  18502.636119   -628.589467
PG12  22326.297767  -8266.146158  11372.132979    252.257456
PG13  22902.720069  13040.897073  -3581.810972    -68.231721
PG14 -12242.000054 -17275.002946  16463.340810    -84.912293
PG15  26273.663414   2232.682010   4357.462584   -318.961137
PG16 -14622.585331  -6691.840559 -21405.202912    -31.851661
PG17   3041.016617  16192.742668  21260.111705     37.369239
PG18 -16225.330469  -6964.632873  19399.483470     43.164540
PG19  11625.282639  16908.487957  16515.091031   -331.950921
PG20  12771.492666 -22285.585148   6351.300572    523.885984
PG21   3761.918610 -22112.042346 -13529.695528   -214.628741
PG22 -20464.558413   3357.701778  16794.673891   -681.613347
PG23 -23162.213611   2866.765688 -12720.535800   -190.630867
PG24  16070.060530    333.806016  21027.895012    -64.615888
PG25  19750.105970 -17527.187881    631.439957   -744.281463
PG26  -5929.716255 -15101.919143 -21017.363744    173.089402
PG27 -22629.332319 -12182.250160  -7400.894590   -105.936242
PG28  -8666.418405  20001.401979  15847.001905    767.353776
PG29  18225.005877  -6054.864628 -18378.484445    228.110786
PG30  -1574.424005  25095.014586  -8241.779196    -84.521067
PG31  -7158.465450 -25130.259177  -3138.727283     45.837120
PR01  23916.734988  -8346.530031   3077.704998     42.165306
PR02   9827.320222 -12402.931878  20030.797011    363.156483
PR03  -9078.757677  -8577.311488  22291.123020     -6.464503
PR04 -22920.561281    620.775907  11213.764036    302.033739
PR05 -23281.193070   8907.138034  -5448.001216     25.924382
PR07   9512.515015   8366.930400 -22094.939099    -18.079457
PR08  22602.453619   -224.314572 -11758.791436     18.284343
PR09  -5779.120245  24735.887218   1922.226599     63.874027
PR10   2285.227762  19515.899005  16192.976829     47.388003
PR11  10830.276767   2359.432588  22982.415105    -62.599029
PR13   6268.834854 -24726.325737   -257.086555    -22.310024
PR14  -2662.954584 -19540.486706 -16179.637972     37.820922
PR15 -10378.775353  -3308.191005 -23050.550959    101.256197
PR16 -12072.912749  15240.532381 -16608.114865     10.282177
PR17 -14676.031434 -19550.652850  -7224.761331    219.389445
PR18 -19435.078006 -13372.288331   9803.009437    -10.752815
PR19 -13597.739199   -279.397425  21584.235843    -24.888729
PR20   1070.393988  14723.221073  20795.949785   -374.600629
PR21  15035.193513  19514.679434   6654.095333    -41.758553
PR22  19070.834466  11630.576607 -12184.290717    -13.921012
PR23  10192.614490  -4402.485083 -22968.623941    221.045554
PR24  -2783.535115 -15688.878154 -19949.171269   -179.212573
PR26   -722.010238  13280.487259  21783.204831      6.539658
EOF
